[{"OBJECT_NAME":"HAWK-3C","OBJECT_ID":"2021-059BX","EPOCH":"2026-03-09T11:39:18.012960","MEAN_MOTION":15.61557369,"ECCENTRICITY":0.00055667,"INCLINATION":97.687,"RA_OF_ASC_NODE":261.8501,"ARG_OF_PERICENTER":340.3597,"MEAN_ANOMALY":19.7445,"EPHEMERIS_TYPE":0,"CLASSIFICATION_TYPE":"U","NORAD_CAT_ID":48948,"ELEMENT_SET_NO":999,"REV_AT_EPOCH":26225,"BSTAR":0.00044158538,"MEAN_MOTION_DOT":0.00037876,"MEAN_MOTION_DDOT":0},{"OBJECT_NAME":"OBJECT D","OBJECT_ID":"2022-019D","EPOCH":"2026-03-09T23:54:04.101984","MEAN_MOTION":15.5899331,"ECCENTRICITY":0.00068562,"INCLINATION":97.3688,"RA_OF_ASC_NODE":157.042,"ARG_OF_PERICENTER":142.6655,"MEAN_ANOMALY":217.5079,"EPHEMERIS_TYPE":0,"CLASSIFICATION_TYPE":"U","NORAD_CAT_ID":51827,"ELEMENT_SET_NO":999,"REV_AT_EPOCH":22419,"BSTAR":0.00075591427,"MEAN_MOTION_DOT":0.00059056,"MEAN_MOTION_DDOT":0}]
